Name,Category,Region,County,Golf,Camp,Playground,Nature Center,Beach,Facility URL,Golf URL,Nature Center URL,Longitude,Latitude,Location
Amherst,State Park,1,Erie,N,N,N,,,,,,-78.7480881839,42.971000873,"(42.97100087300, -78.74808818390)"
Beaver Island,State Park,1,Erie,Y,N,Y,Y,Y,http://nysparks.com/parks/56/details.aspx,http://nysparks.com/golf-courses/4/details.aspx,http://www.nysparks.com/environment/nature-centers/11/details.aspx,-78.9531063633,42.9657659397,"(42.96576593970, -78.95310636330)"
Big Six Mile Creek Marina,Marine Facility,1,Erie,N,N,N,,,http://nysparks.com/parks/50/details.aspx,,,-79.0109877003,43.0231951575,"(43.02319515750, -79.01098770030)"
Buckhorn Island,State Park,1,Erie,N,N,N,,,http://nysparks.com/parks/174/details.aspx,,,-78.9807473248,43.0585164791,"(43.05851647910, -78.98074732480)"
Darwin Martin House,State Historic Site,1,Erie,N,N,N,,,http://nysparks.com/historic-sites/35/details.aspx,,,-78.8480452045,42.9360920889,"(42.93609208890, -78.84804520450)"
DeVeaux Woods,State Park,1,Erie,N,N,Y,,,http://nysparks.com/parks/11/details.aspx,,,-79.0587431765,43.1194167987,"(43.11941679870, -79.05874317650)"
Devil's Hole,State Park,1,Niagara,N,N,N,,,http://nysparks.com/parks/42/details.aspx,,,-79.0459607011,43.1346318545,"(43.13463185450, -79.04596070110)"
Earl W. Brydges Artpark,State Park,1,Niagara,N,N,N,,,http://nysparks.com/parks/113/details.aspx,,,-79.0419282069,43.1656182246,"(43.16561822460, -79.04192820690)"
Evangola,State Park,1,Erie,N,Y,Y,Y,Y,http://nysparks.com/parks/91/details.aspx,,,-79.1018592578,42.6057993585,"(42.60579935850, -79.10185925780)"
Fort Niagara,State Park,1,Niagara,N,N,Y,Y,,http://nysparks.com/parks/175/details.aspx,,,-79.0525858506,43.2616349374,"(43.26163493740, -79.05258585060)"
Four Mile Creek,State Park,1,Niagara,N,Y,Y,,,http://nysparks.com/parks/6/details.aspx,,,-78.9974685115,43.2743764485,"(43.27437644850, -78.99746851150)"
Golden Hill,State Park,1,Niagara,N,Y,Y,,,http://nysparks.com/parks/143/details.aspx,,,-78.4801588564,43.3694616791,"(43.36946167910, -78.48015885640)"
Joseph Davis,State Park,1,Niagara,N,N,Y,,,http://nysparks.com/parks/45/details.aspx,,,-79.0399244577,43.214121149,"(43.21412114900, -79.03992445770)"
Knox Farm,State Park,1,Erie,N,N,N,,,http://nysparks.com/parks/163/details.aspx,,,-78.6477499359,42.7738672657,"(42.77386726570, -78.64774993590)"
Niagara Falls,State Park,1,Niagara,N,N,N,Y,,http://nysparks.com/parks/46/details.aspx,,,-79.0670195347,43.0867482021,"(43.08674820210, -79.06701953470)"
Old Fort Niagara,State Historic Site,1,Niagara,N,N,N,,,http://nysparks.com/historic-sites/31/details.aspx,,,-79.0631143489,43.2625939108,"(43.26259391080, -79.06311434890)"
Reservoir,State Park,1,Niagara,N,N,Y,,,http://nysparks.com/parks/75/details.aspx,,,-79.0150381473,43.1340115441,"(43.13401154410, -79.01503814730)"
Strawberry Island,Other,1,Erie,N,N,N,,,,,,-78.9224974212,42.9539490596,"(42.95394905960, -78.92249742120)"
Whirlpool,State Park,1,Niagara,N,N,Y,,,http://nysparks.com/parks/105/details.aspx,,,-79.0634179678,43.1204004767,"(43.12040047670, -79.06341796780)"
Wilson-Tuscarora,State Park,1,Niagara,N,N,Y,,Y,http://nysparks.com/parks/69/details.aspx,,,-78.8556088836,43.3037772926,"(43.30377729260, -78.85560888360)"
Woodlawn Beach,State Park,1,Erie,N,N,Y,,Y,http://nysparks.com/parks/47/details.aspx,,http://www.nysparks.com/environment/nature-centers/10/details.aspx,-78.8522078489,42.7938189008,"(42.79381890080, -78.85220784890)"
Allegany,State Park,2,Cattaraugus,N,Y,Y,Y-A,Y-M,http://nysparks.com/parks/136/details.aspx,,http://www.nysparks.com/environment/nature-centers/12/details.aspx,-78.7685586473,42.0547575211,"(42.05475752110, -78.76855864730)"
Lake Erie,State Park,2,Chautauqua,N,Y,Y,,Y,http://nysparks.com/parks/129/details.aspx,,,-79.431417873,42.4228907897,"(42.42289078970, -79.43141787300)"
Long Point,State Park,2,Chautauqua,N,N,Y,,Y,http://nysparks.com/parks/109/details.aspx,,,-79.4109114045,42.1787606524,"(42.17876065240, -79.41091140450)"
Midway,State Park,2,Chautauqua,N,N,N,,,http://nysparks.com/parks/167/details.aspx,,,-79.4224274036,42.2008724801,"(42.20087248010, -79.42242740360)"
Braddock Bay,State Park,3,Monroe,N,N,N,,,,,,-77.7038657164,43.2941954526,"(43.29419545260, -77.70386571640)"
Canal Park Lock 32,Other,3,Monroe,N,N,N,,,,,,-77.5463410098,43.0925511521,"(43.09255115210, -77.54634100980)"
Conesus Lake Marine Park,Marine Facility,3,Livingston,N,N,N,,,http://nysparks.com/parks/71/details.aspx,,,-77.7116004968,42.7758061511,"(42.77580615110, -77.71160049680)"
Darien Lakes,State Park,3,Genesee,N,Y,Y,,Y,http://nysparks.com/parks/144/details.aspx,,,-78.4114922979,42.9118141573,"(42.91181415730, -78.41149229790)"
Genesee River,Other,3,Monroe,N,N,N,,,,,,-77.6143127098,43.2305847066,"(43.23058470660, -77.61431270980)"
Hamlin Beach,State Park,3,Monroe,N,Y,Y,,Y-M,http://nysparks.com/parks/20/details.aspx,,,-77.9550976705,43.3600913014,"(43.36009130140, -77.95509767050)"
Irondequoit Bay Marine Park,Marine Facility,3,Monroe,N,N,N,,,http://nysparks.com/parks/100/details.aspx,,,-77.5397106881,43.2318695342,"(43.23186953420, -77.53971068810)"
Lakeside Beach,State Park,3,Orleans,N,Y,Y,,,http://nysparks.com/parks/161/details.aspx,,,-78.2437024878,43.3663835822,"(43.36638358220, -78.24370248780)"
Letchworth,State Park,3,Liv/Wyo,N,Y,Y,,,http://nysparks.com/parks/79/details.aspx,,,-77.9757692236,42.6459213488,"(42.64592134880, -77.97576922360)"
Oak Orchard Marine Park,Marine Facility,3,Orleans,N,N,N,,,http://nysparks.com/parks/131/details.aspx,,,-78.2010190588,43.3681054695,"(43.36810546950, -78.20101905880)"
Silver Lake,State Park,3,Wyoming,N,N,N,,,http://nysparks.com/parks/104/details.aspx,,,-78.0565609783,42.6792542189,"(42.67925421890, -78.05656097830)"
Allan H. Treman,Marine Facility,4,Tompkins,N,N,N,,,http://nysparks.com/parks/35/details.aspx,,,-76.517568174,42.4613966817,"(42.46139668170, -76.51756817400)"
Beechwood,State Park,4,Wayne,N,N,N,,,,,,-77.0337933037,43.266694455,"(43.26669445500, -77.03379330370)"
Bonavista,State Park,4,Seneca,Y,N,N,,,http://nysparks.com/parks/160/details.aspx,http://nysparks.com/golf-courses/10/details.aspx,,-76.8677249793,42.6731942171,"(42.67319421710, -76.86772497930)"
Buttermilk Falls,State Park,4,Tompkins,N,Y,Y,,Y-M,http://nysparks.com/parks/151/details.aspx,,,-76.5122566369,42.4040259595,"(42.40402595950, -76.51225663690)"
Canandaigua Lake Marine Park,Marine Facility,4,Ontario,N,N,N,,,http://nysparks.com/parks/3/details.aspx,,,-77.275682797,42.8766685939,"(42.87666859390, -77.27568279700)"
Cayuga Lake,State Park,4,Seneca,N,Y,Y,,Y,http://nysparks.com/parks/123/details.aspx,,,-76.7553118502,42.8979519073,"(42.89795190730, -76.75531185020)"
Chimney Bluffs,State Park,4,Wayne,N,N,N,,,http://nysparks.com/parks/43/details.aspx,,,-76.9170242028,43.2809455173,"(43.28094551730, -76.91702420280)"
Deans Cove Boat Launch,Marine Facility,4,Seneca,N,N,N,,,http://nysparks.com/parks/63/details.aspx,,,-76.7687292376,42.7444615076,"(42.74446150760, -76.76872923760)"
Fair Haven Beach,State Park,4,Cayuga,Y,Y,Y,,Y-M,http://nysparks.com/parks/12/details.aspx,http://nysparks.com/golf-courses/9/details.aspx,,-76.6913106828,43.3417081221,"(43.34170812210, -76.69131068280)"
Fillmore Glen,State Park,4,Cayuga,N,Y,Y,,Y,http://nysparks.com/parks/157/details.aspx,,,-76.388006245,42.6909689808,"(42.69096898080, -76.38800624500)"
Ganondagon,State Historic Site,4,Ontario,N,N,N,,,http://nysparks.com/historic-sites/26/details.aspx,,,-77.4220682423,42.9648298665,"(42.96482986650, -77.42206824230)"
Harriet Hollister Spencer,State Park,4,Ontario,N,N,N,,,http://nysparks.com/parks/164/details.aspx,,,-77.5154780869,42.688112003,"(42.68811200300, -77.51547808690)"
Honeoye Marine Park,Marine Facility,4,Ontario,N,N,N,,,http://nysparks.com/parks/162/details.aspx,,,-77.5045781497,42.7257540199,"(42.72575401990, -77.50457814970)"
Indian Hills,State Park,4,Steuben,Y,N,N,,,,http://nysparks.com/golf-courses/19/details.aspx,,-77.1547655357,42.0930548903,"(42.09305489030, -77.15476553570)"
Keuka Lake,State Park,4,Yates,N,N,Y,,Y,http://nysparks.com/parks/67/details.aspx,,,-77.1285833589,42.5821825522,"(42.58218255220, -77.12858335890)"
Lodi Point Marine Park,Marine Facility,4,Seneca,N,N,Y,,,http://nysparks.com/parks/89/details.aspx,,,-76.8768305442,42.6182465855,"(42.61824658550, -76.87683054420)"
Long Point,State Park,4,Cayuga,N,N,Y,,Y,http://nysparks.com/parks/170/details.aspx,,,-76.6984092825,42.7174110413,"(42.71741104130, -76.69840928250)"
Mark Twain,State Park,4,Chemung,Y,N,N,,,http://nysparks.com/parks/138/details.aspx,http://nysparks.com/golf-courses/3/details.aspx,,-76.8356909125,42.211660694,"(42.21166069400, -76.83569091250)"
Newtown Battlefield,State Park,4,Chemung,N,Y,Y,,,http://nysparks.com/parks/107/details.aspx,,,-76.7363172694,42.0490265183,"(42.04902651830, -76.73631726940)"
Parrot Hall,State Historic Site,4,Ontario,N,N,N,,,,,,-77.0088142477,42.8767739578,"(42.87677395780, -77.00881424770)"
Pinnacle,State Park,4,Steuben,Y,N,N,,,http://nysparks.com/parks/4/details.aspx,http://nysparks.com/golf-courses/16/details.aspx,,-77.2145609228,42.0973529692,"(42.09735296920, -77.21456092280)"
Robert H. Treman,State Park,4,Tompkins,N,Y,Y,,Y,http://nysparks.com/parks/135/details.aspx,,,-76.5795442076,42.4005756394,"(42.40057563940, -76.57954420760)"
Sampson,State Park,4,Seneca,N,Y,Y,,Y,http://nysparks.com/parks/154/details.aspx,,,-76.9013257035,42.7254900187,"(42.72549001870, -76.90132570350)"
Seneca Lake,State Park,4,Ont/Sen,N,N,Y,,Y,http://nysparks.com/parks/125/details.aspx,,,-76.9545497708,42.8739500967,"(42.87395009670, -76.95454977080)"
Sonnenberg Gardens and Mansion,State Historic Park,4,Ontario,N,N,N,,,http://nysparks.com/historic-sites/36/details.aspx,,,-77.2721596007,42.8981467736,"(42.89814677360, -77.27215960070)"
Stony Brook,State Park,4,Steuben,N,Y,Y,,Y-M,http://nysparks.com/parks/118/details.aspx,,,-77.6929663929,42.5185595291,"(42.51855952910, -77.69296639290)"
Taughannock Falls,State Park,4,Tompkins,N,Y,Y,,Y,http://nysparks.com/parks/62/details.aspx,,,-76.6097670832,42.5407382384,"(42.54073823840, -76.60976708320)"
Two Rivers,State Park,4,Tioga,N,N,N,,,http://nysparks.com/parks/179/details.aspx,,,-76.5473199933,42.0251635453,"(42.02516354530, -76.54731999330)"
Watkins Glen,State Park,4,Schuyler,N,Y,Y,,,http://nysparks.com/parks/142/details.aspx,,,-76.9001337586,42.3675397399,"(42.36753973990, -76.90013375860)"
Battle Island,State Park,5,Oswego,Y,N,N,,,http://nysparks.com/parks/44/details.aspx,http://nysparks.com/golf-courses/5/details.aspx,,-76.4360441829,43.3616709338,"(43.36167093380, -76.43604418290)"
Betty & Wilbur Davis,State Park,5,Otsego,N,N,N,,,http://nysparks.com/parks/85/details.aspx,,,-74.8329098238,42.6636396942,"(42.66363969420, -74.83290982380)"
Bowman Lake,State Park,5,Chenango,N,Y,Y,,Y,http://nysparks.com/parks/76/details.aspx,,,-75.6806338029,42.519984738,"(42.51998473800, -75.68063380290)"
Canadarago Boat Marine Park,Marine Facility,5,Otsego,N,N,N,,,,,,-75.013711762,42.8186973108,"(42.81869731080, -75.01371176200)"
Chenango Valley,State Park,5,Broome,Y,Y,Y,,Y,http://nysparks.com/parks/41/details.aspx,http://nysparks.com/golf-courses/20/details.aspx,,-75.8362368401,42.2155402507,"(42.21554025070, -75.83623684010)"
Chittenango Falls,State Park,5,Madison,N,N,Y,Y,,http://nysparks.com/parks/130/details.aspx,,,-75.8466563129,42.9814847366,"(42.98148473660, -75.84665631290)"
Clark Reservation,State Park,5,Onondaga,N,N,Y,Y,,http://nysparks.com/parks/126/details.aspx,,,-76.0930004359,42.9975225031,"(42.99752250310, -76.09300043590)"
Delta Lake,State Park,5,Oneida,N,Y,Y,,Y,http://nysparks.com/parks/66/details.aspx,,,-75.4218722435,43.290965581,"(43.29096558100, -75.42187224350)"
Fort Ontario,State Historic Site,5,Oswego,N,N,N,,,http://nysparks.com/historic-sites/20/details.aspx,,,-76.5074471503,43.4661242441,"(43.46612424410, -76.50744715030)"
Gilbert Lake,State Park,5,Otsego,N,Y,Y,,Y,http://nysparks.com/parks/19/details.aspx,,,-75.1324631246,42.586583996,"(42.58658399600, -75.13246312460)"
Glimmerglass,State Park,5,Otsego,N,Y,Y,,Y,http://nysparks.com/parks/28/details.aspx,,,-74.8686839156,42.7936261732,"(42.79362617320, -74.86868391560)"
Green Lakes,State Park,5,Onondaga,Y,Y,Y,,Y,http://nysparks.com/parks/172/details.aspx,http://nysparks.com/golf-courses/14/details.aspx,,-75.9818848047,43.0469783183,"(43.04697831830, -75.98188480470)"
Helen L. McNitt,Other,5,Madison,N,N,N,,,,,,-75.8741083475,42.9708517551,"(42.97085175510, -75.87410834750)"
Herkimer Home,State Historic Site,5,Herkimer,N,N,N,,,http://nysparks.com/historic-sites/14/details.aspx,,,-74.8158650531,43.0253285628,"(43.02532856280, -74.81586505310)"
Hyde Hall,State Historic Site,5,Otsego,N,N,N,,,http://nysparks.com/historic-sites/11/details.aspx,,,-74.8739966963,42.7937333296,"(42.79373332960, -74.87399669630)"
John Burroughs Memorial,State Historic Site,5,Delaware,N,N,N,,,http://nysparks.com/historic-sites/3/details.aspx,,,-74.5859690347,42.2947419755,"(42.29474197550, -74.58596903470)"
Lorenzo,State Historic Site,5,Madison,N,N,N,,,http://nysparks.com/historic-sites/15/details.aspx,,,-75.8656999617,42.9229020904,"(42.92290209040, -75.86569996170)"
Mexico Point,State Park,5,Oswego,N,N,N,,,,,,-76.2584640776,43.5199984003,"(43.51999840030, -76.25846407760)"
Mexico Point Marine Park,Marine Facility,5,Oswego,N,N,N,,,http://nysparks.com/parks/183/details.aspx,,,-76.2551432086,43.5233750364,"(43.52337503640, -76.25514320860)"
Old Erie Canal,State Historic Park,5,Onon/Mad/Oneida,N,N,N,,,http://nysparks.com/historic-sites/32/details.aspx,,,-75.9217693491,43.0754747048,"(43.07547470480, -75.92176934910)"
Oquaga Creek,State Park,5,Broome/Delaware,N,Y,Y,,Y,http://nysparks.com/parks/27/details.aspx,,,-75.4246793483,42.1780514491,"(42.17805144910, -75.42467934830)"
Oriskany Battlefield,State Historic Site,5,Oneida,N,N,N,,,http://nysparks.com/historic-sites/21/details.aspx,,,-75.3667103924,43.176774697,"(43.17677469700, -75.36671039240)"
Pixley Falls,State Park,5,Oneida,N,Y,N,,,http://nysparks.com/parks/32/details.aspx,,,-75.3414755523,43.4043184536,"(43.40431845360, -75.34147555230)"
Robert V. Riddell,State Park,5,Otsego,N,N,N,,,http://nysparks.com/parks/18/details.aspx,,,-74.9371075745,42.4762545082,"(42.47625450820, -74.93710757450)"
Sandy Island Beach,State Park,5,Oswego,N,N,N,,Y,http://nysparks.com/parks/153/details.aspx,,,-76.1956650041,43.6309316052,"(43.63093160520, -76.19566500410)"
Selkirk Shores,State Park,5,Oswego,N,Y,Y,,Y,http://nysparks.com/parks/84/details.aspx,,,-76.1984400233,43.5556620105,"(43.55566201050, -76.19844002330)"
State Park at the Fair,Other,5,Onondaga,N,N,N,,,http://nysparks.com/parks/82/details.aspx,,,-76.2169659143,43.0711046317,"(43.07110463170, -76.21696591430)"
Steuben Memorial,State Historic Site,5,Oneida,N,N,N,,,http://nysparks.com/historic-sites/2/details.aspx,,,-75.2324893011,43.3381056996,"(43.33810569960, -75.23248930110)"
Verona Beach,State Park,5,Oneida,N,Y,Y,,Y,http://nysparks.com/parks/102/details.aspx,,,-75.716586586,43.178008249,"(43.17800824900, -75.71658658600)"
Clarence Fahnestock,State Park,7,Putnam,N,Y,N,Y-A,Y,http://nysparks.com/parks/133/details.aspx,,http://www.nysparks.com/environment/nature-centers/3/details.aspx,-73.8476473928,41.4527563307,"(41.45275633070, -73.84764739280)"
Clermont,State Historic Site,7,Col/Dutch,N,N,N,,,http://nysparks.com/historic-sites/16/details.aspx,,,-73.911040157,42.0833097387,"(42.08330973870, -73.91104015700)"
Clinton House,State Historic Site,7,Dutchess,N,N,N,,,http://nysparks.com/historic-sites/1/details.aspx,,,-73.9162447123,41.700364954,"(41.70036495400, -73.91624471230)"
Donald J. Trump,State Park,7,Putnam/Westchester,N,N,N,,,,,,-73.8083717836,41.3453986775,"(41.34539867750, -73.80837178360)"
Donald J. Trump,State Park,7,Putnam/Westchester,N,N,N,,,,,,-73.8040521147,41.2626335527,"(41.26263355270, -73.80405211470)"
Franklin Delano Roosevelt,State Park,7,Westchester,N,N,Y,,,http://nysparks.com/parks/148/details.aspx,,,-73.8087569052,41.2823041702,"(41.28230417020, -73.80875690520)"
Hart's Brook Nature Preserve & Arboretum,Other,7,Westchester,N,N,N,,,,,,-73.8080601676,41.0179614433,"(41.01796144330, -73.80806016760)"
Hudson Highlands,State Park Preserve,7,Dutch/Put,N,N,N,,,http://nysparks.com/parks/9/details.aspx,,,-73.9621103209,41.433755673,"(41.43375567300, -73.96211032090)"
James Baird,State Park,7,Dutchess,Y,N,Y,,,http://nysparks.com/parks/101/details.aspx,http://nysparks.com/golf-courses/1/details.aspx,,-73.7954318134,41.6880050951,"(41.68800509510, -73.79543181340)"
John Jay Homestead,State Historic Site,7,Westchester,N,N,N,,,http://nysparks.com/historic-sites/4/details.aspx,,,-73.6588064087,41.2503409573,"(41.25034095730, -73.65880640870)"
Lake Taghkanic,State Park,7,Columbia,N,Y,Y,,Y-M,http://nysparks.com/parks/38/details.aspx,,,-73.7058878188,42.092881818,"(42.09288181800, -73.70588781880)"
Margaret Lewis Norrie,State Park,7,Dutchess,N,Y,N,,,http://nysparks.com/parks/171/details.aspx,,,-73.9389551372,41.8415365481,"(41.84153654810, -73.93895513720)"
Ogden & Ruth Livingston Mills,State Park,7,Dutchess,Y,N,N,,,http://nysparks.com/parks/33/details.aspx,http://nysparks.com/golf-courses/21/details.aspx,,-73.9348059546,41.8530053952,"(41.85300539520, -73.93480595460)"
Olana,State Historic Site,7,Columbia,N,N,N,,,http://nysparks.com/historic-sites/23/details.aspx,,,-73.8287595658,42.2145951381,"(42.21459513810, -73.82875956580)"
Old Croton Aqueduct,State Historic Park,7,Westchester,N,N,N,,,http://nysparks.com/parks/96/details.aspx,,,-73.8631712826,41.1656638717,"(41.16566387170, -73.86317128260)"
Peter Jay,Other,7,Westchester,N,N,N,,,http://nysparks.com/historic-sites/39/details.aspx,,,-73.7058775486,40.9569460139,"(40.95694601390, -73.70587754860)"
Philipse Manor Hall,State Historic Site,7,Westchester,N,N,N,,,http://nysparks.com/historic-sites/37/details.aspx,,,-73.8993128614,40.9355500517,"(40.93555005170, -73.89931286140)"
Quiet Cove Riverfront Park,Other,7,Dutchess,N,N,N,,,,,,-73.93449945,41.7332253868,"(41.73322538680, -73.93449945000)"
Rockefeller Park Preserve,State Park,7,Westchester,N,N,N,,,http://nysparks.com/parks/59/details.aspx,,,-73.8325399895,41.1096930853,"(41.10969308530, -73.83253998950)"
Staatsburgh,State Historic Site,7,Dutchess,N,N,N,,,http://nysparks.com/historic-sites/25/details.aspx,,,-73.9299489021,41.8566275388,"(41.85662753880, -73.92994890210)"
Taconic,State Park,7,Dutchess,N,N,Y,Y,Y-M,http://nysparks.com/parks/83/details.aspx,,,-73.5174392806,42.0778638556,"(42.07786385560, -73.51743928060)"
Taxter Ridge,Other,7,Westchester,N,N,N,,,,,,-73.8387767742,41.0551193933,"(41.05511939330, -73.83877677420)"
Walkway over the Hudson,State Historic Park,7,Dutchess,N,N,N,,,http://nysparks.com/parks/178/details.aspx,,,-73.9449508899,41.7105870004,"(41.71058700040, -73.94495088990)"
Wonder Lake,State Park,7,Putnam,N,N,N,,,,,,-73.6465863149,41.4919031611,"(41.49190316110, -73.64658631490)"
Bear Mountain,State Park,8,Rockland/Orange,N,N,Y,Y-A,,http://nysparks.com/parks/145/details.aspx,,,-73.9924016123,41.2990042301,"(41.29900423010, -73.99240161230)"
Blauvelt,State Park,8,Rockland,N,N,N,,,http://nysparks.com/parks/49/details.aspx,,,-73.9373730834,41.074241369,"(41.07424136900, -73.93737308340)"
Bristol Beach,State Park,8,Rockland,N,N,N,,,,,,-73.9325310791,42.1083717833,"(42.10837178330, -73.93253107910)"
Fort Montgomery,State Historic Site,8,Orange,N,N,N,,,http://nysparks.com/historic-sites/28/details.aspx,,,-73.9895724569,41.3243022048,"(41.32430220480, -73.98957245690)"
Franny Reese Preserve,State Park,8,Ulster,N,N,N,,,,,,-73.9559643746,41.7014644466,"(41.70146444660, -73.95596437460)"
Goosepond Mountain,State Park,8,Orange,N,N,N,,,http://nysparks.com/parks/55/details.aspx,,,-74.2466476409,41.3375248269,"(41.33752482690, -74.24664764090)"
Harriman,State Park,8,Rock/Orange,N,Y,Y,,Y-M,http://nysparks.com/parks/145/details.aspx,,,-74.1016999643,41.2373304835,"(41.23733048350, -74.10169996430)"
Haverstraw Beach,State Park,8,Rockland,N,N,N,,,,,,-73.9431704761,41.1779918118,"(41.17799181180, -73.94317047610)"
High Tor,State Park,8,Rockland,N,N,N,,,http://nysparks.com/parks/78/details.aspx,,,-73.9840129896,41.1906178735,"(41.19061787350, -73.98401298960)"
Highland Lakes,State Park,8,Orange,N,N,N,,,http://nysparks.com/parks/5/details.aspx,,,-74.3285754476,41.4913005789,"(41.49130057890, -74.32857544760)"
Hook Mountain,State Park,8,Rockland,N,N,N,,,,,,-73.915881718,41.1517064047,"(41.15170640470, -73.91588171800)"
Iona Island,State Park,8,Rockland,N,N,N,,,,,,-73.9760036984,41.304270602,"(41.30427060200, -73.97600369840)"
Knox Headquarters,State Historic Site,8,Orange,N,N,N,,,http://nysparks.com/historic-sites/5/details.aspx,,,-74.0478219441,41.4534352252,"(41.45343522520, -74.04782194410)"
Lake Superior,State Park,8,Sullivan,N,N,N,,Y,http://nysparks.com/parks/87/details.aspx,,,-74.8794264796,41.6679305297,"(41.66793052970, -74.87942647960)"
Minnewaska,State Park Preserve,8,Ulster,N,N,N,Y,Y-M,http://nysparks.com/parks/127/details.aspx,,,-74.2932352939,41.7158154916,"(41.71581549160, -74.29323529390)"
New Windsor Cantonement,State Historic Site,8,Orange,N,N,N,,,http://nysparks.com/historic-sites/22/details.aspx,,,-74.0594572677,41.4733927813,"(41.47339278130, -74.05945726770)"
Nyack Beach,State Park,8,Rockland,N,N,N,,,http://nysparks.com/parks/156/details.aspx,,,-73.9086544942,41.1271276953,"(41.12712769530, -73.90865449420)"
Palisades,State Park,8,Rockland,N,N,N,,,,,,-73.9035443708,41.0000423858,"(41.00004238580, -73.90354437080)"
Rockland Lake,State Park,8,Rockland,Y,N,N,Y,,http://nysparks.com/parks/81/details.aspx,http://nysparks.com/golf-courses/6/details.aspx,,-73.9219192445,41.1362106822,"(41.13621068220, -73.92191924450)"
Schunnemunk Mountain,State Park,8,Orange,N,N,N,,,http://nysparks.com/parks/184/details.aspx,,,-74.1027172519,41.4021107609,"(41.40211076090, -74.10271725190)"
Senate House,State Historic Site,8,Orange,N,N,N,,,http://nysparks.com/historic-sites/18/details.aspx,,,-74.0188842412,41.9349364666,"(41.93493646660, -74.01888424120)"
Sterling Forest,State Park,8,Orange,N,N,N,Y-A,,http://nysparks.com/parks/74/details.aspx,,,-74.2467658789,41.2119192066,"(41.21191920660, -74.24676587890)"
Stony Point Battlefield,State Historic Site,8,Rockland,N,N,N,,,http://nysparks.com/historic-sites/8/details.aspx,,,-73.9763734973,41.2410903919,"(41.24109039190, -73.97637349730)"
Storm King,State Park,8,Orange,N,N,N,,,http://nysparks.com/parks/152/details.aspx,,,-73.991346402,41.425644491,"(41.42564449100, -73.99134640200)"
Tallman Mountain,State Park,8,Rockland,N,N,Y,,,http://nysparks.com/parks/119/details.aspx,,,-73.9103313153,41.026422676,"(41.02642267600, -73.91033131530)"
Washington's Headquarters,State Historic Site,8,Orange,N,N,N,,,http://nysparks.com/historic-sites/17/details.aspx,,,-74.0096075788,41.4977050471,"(41.49770504710, -74.00960757880)"
Alfred E. Smith/Sunken Meadow,State Park,9,Suffolk,Y,N,Y,,Y,http://nysparks.com/parks/37/details.aspx,http://nysparks.com/golf-courses/13/details.aspx,,-73.2632063245,40.9099922695,"(40.90999226950, -73.26320632450)"
Amsterdam Beach,State Park,9,Suffolk,N,N,N,,,,,,-71.900265311,41.0477711309,"(41.04777113090, -71.90026531100)"
Bayard Cutting Arboretum,State Park,9,Suffolk,N,N,N,Y,,http://nysparks.com/parks/95/details.aspx,,,-73.1577583532,40.7472405356,"(40.74724053560, -73.15775835320)"
Belmont Lake,State Park,9,Suffolk,N,N,Y,,,http://nysparks.com/parks/88/details.aspx,,,-73.3367949963,40.7262324019,"(40.72623240190, -73.33679499630)"
Bethpage,State Park,9,Nassau,Y,N,Y,,,http://nysparks.com/parks/108/details.aspx,http://nysparks.com/golf-courses/11/details.aspx,,-73.4568035403,40.7475174105,"(40.74751741050, -73.45680354030)"
Brentwood,State Park,9,Suffolk,N,N,N,,,,,,-73.2711299925,40.7915533842,"(40.79155338420, -73.27112999250)"
Brookhaven,State Park,9,Suffolk,N,N,N,,,http://nysparks.com/parks/180/details.aspx,,,-72.8648165733,40.9209500377,"(40.92095003770, -72.86481657330)"
Caleb Smith Park Preserve,State Park Preserve,9,Suffolk,N,N,N,Y-A,,http://nysparks.com/parks/124/details.aspx,,http://www.nysparks.com/environment/nature-centers/9/details.aspx,-73.2260164473,40.8530379808,"(40.85303798080, -73.22601644730)"
Camp Hero,State Park,9,Suffolk,N,N,N,,,http://nysparks.com/parks/97/details.aspx,,,-71.8777872995,41.0617719475,"(41.06177194750, -71.87778729950)"
Captree,State Park,9,Suffolk,N,N,Y,,,http://nysparks.com/parks/65/details.aspx,,,-73.2612735859,40.6388521833,"(40.63885218330, -73.26127358590)"
Caumsett,State Historic Park,9,Suffolk,N,N,N,,,http://nysparks.com/parks/23/details.aspx,,,-73.4686773494,40.9281246175,"(40.92812461750, -73.46867734940)"
Cold Spring Harbor,State Park,9,Suffolk,N,N,N,,,http://nysparks.com/parks/115/details.aspx,,,-73.4602230086,40.8628393914,"(40.86283939140, -73.46022300860)"
Connetquot River,State Park Preserve,9,Suffolk,N,N,N,Y-A,,http://nysparks.com/parks/8/details.aspx,,http://www.nysparks.com/environment/nature-centers/6/details.aspx,-73.1492496889,40.7694292476,"(40.76942924760, -73.14924968890)"
Gilgo,State Park,9,Suffolk,N,N,N,,,http://nysparks.com/parks/15/details.aspx,,,-73.3429302908,40.6342880994,"(40.63428809940, -73.34293029080)"
Hallock,State Park Preserve,9,Suffolk,N,N,N,,,http://nysparks.com/parks/181/details.aspx,,,-72.5974738093,40.9907206945,"(40.99072069450, -72.59747380930)"
Heckscher,State Park,9,Suffolk,N,Y,Y,,Y-M,http://nysparks.com/parks/136/details.aspx,,,-73.1649223786,40.7086615084,"(40.70866150840, -73.16492237860)"
Hempstead Lake,State Park,9,Nassau,N,N,Y,,,http://nysparks.com/parks/31/details.aspx,,,-73.6424215072,40.6823140013,"(40.68231400130, -73.64242150720)"
Hither Hills,State Park,9,Suffolk,N,Y,Y,Y,Y,http://nysparks.com/parks/122/details.aspx,,,-72.021313036,41.01605601,"(41.01605601000, -72.02131303600)"
Hither Woods,State Park,9,Suffolk,N,N,N,,,,,,-71.9893331346,41.0313237016,"(41.03132370160, -71.98933313460)"
Jones Beach,State Park,9,Nassau,Y,N,Y,Y-A,Y-M,http://nysparks.com/parks/10/details.aspx,http://nysparks.com/golf-courses/18/details.aspx,http://www.nysparks.com/environment/nature-centers/4/details.aspx,-73.5164273182,40.596010848,"(40.59601084800, -73.51642731820)"
Montauk Downs,State Park,9,Suffolk,Y,N,N,,,http://nysparks.com/parks/29/details.aspx,http://nysparks.com/golf-courses/8/details.aspx,,-71.9385278002,41.0492876822,"(41.04928768220, -71.93852780020)"
Montauk Point,State Park,9,Suffolk,N,N,Y,,,http://nysparks.com/parks/61/details.aspx,,,-71.8813883492,41.0714502774,"(41.07145027740, -71.88138834920)"
Napeague,State Park,9,Suffolk,N,N,N,,,,,,-72.0758973835,40.9932649957,"(40.99326499570, -72.07589738350)"
Nissequogue River,State Park,9,Suffolk,N,N,Y,,,http://nysparks.com/parks/110/details.aspx,,,-73.2316962038,40.8986704423,"(40.89867044230, -73.23169620380)"
Orient Beach,State Park,9,Suffolk,N,N,Y,,Y,http://nysparks.com/parks/106/details.aspx,,,-72.271525252,41.1285513249,"(41.12855132490, -72.27152525200)"
Planting Fields Arboretum,State Historic Park,9,Nassau,N,N,N,Y,,http://nysparks.com/historic-sites/24/details.aspx,,,-73.5572253299,40.8621752807,"(40.86217528070, -73.55722532990)"
Robert Moses,State Park,9,Suffolk,Y,N,Y,,Y-M,http://nysparks.com/parks/7/details.aspx,http://nysparks.com/golf-courses/12/details.aspx,,-73.2651424363,40.6235177464,"(40.62351774640, -73.26514243630)"
Sag Harbor,State Park,9,Suffolk,Y,N,N,,,,http://nysparks.com/golf-courses/17/details.aspx,,-72.2605666428,40.9970245166,"(40.99702451660, -72.26056664280)"
Shadmoor,State Park,9,Suffolk,N,N,N,,,http://nysparks.com/parks/16/details.aspx,,,-71.9277281182,41.0386809843,"(41.03868098430, -71.92772811820)"
Trail View,State Park,9,Nassau,N,N,N,,,http://nysparks.com/parks/39/details.aspx,,,-73.470168754,40.8141101008,"(40.81411010080, -73.47016875400)"
Valley Stream,State Park,9,Nassau,N,N,Y,,,http://nysparks.com/parks/159/details.aspx,,,-73.6942502018,40.678766026,"(40.67876602600, -73.69425020180)"
Walt Whitman Birthplace,State Historic Site,9,Suffolk,N,N,N,,,http://nysparks.com/historic-sites/19/details.aspx,,,-73.4117645186,40.8171750838,"(40.81717508380, -73.41176451860)"
Wildwood,State Park,9,Suffolk,N,Y,Y,,Y,http://nysparks.com/parks/68/details.aspx,,,-72.7945734139,40.9604999599,"(40.96049995990, -72.79457341390)"
Black Lake Boat Launch,Marine Facility,10,St. Lawrence,N,N,N,,,,,,-75.6130388928,44.5093867729,"(44.50938677290, -75.61303889280)"
Burnham Point,State Park,10,Jefferson,N,Y,Y,,,http://nysparks.com/parks/57/details.aspx,,,-76.2644442667,44.1625024865,"(44.16250248650, -76.26444426670)"
Canoe Picnic Point,State Park,10,Jefferson,N,Y,N,,,http://nysparks.com/parks/64/details.aspx,,,-76.0747121606,44.304171386,"(44.30417138600, -76.07471216060)"
Cedar Island,State Park,10,St. Lawrence,N,Y,N,,,http://nysparks.com/parks/25/details.aspx,,,-75.7905288637,44.449679332,"(44.44967933200, -75.79052886370)"
Cedar Point,State Park,10,Jefferson,N,Y,Y,,Y,http://nysparks.com/parks/21/details.aspx,,,-76.19613394,44.2034891967,"(44.20348919670, -76.19613394000)"
Chaumont Boat Launch,Marine Facility,10,Jefferson,N,N,N,,,,,,-76.1498035216,44.0694089909,"(44.06940899090, -76.14980352160)"
Coles Creek,State Park,10,St. Lawrence,N,Y,Y,,Y,http://nysparks.com/parks/72/details.aspx,,,-75.1232360855,44.8847335701,"(44.88473357010, -75.12323608550)"
Crab Island,State Park,10,Clinton,N,N,N,,,,,,-73.4171493852,44.661757997,"(44.66175799700, -73.41714938520)"
Croil Island,State Park,10,St. Lawrence,N,N,N,,,,,,-74.9794752521,44.9725681103,"(44.97256811030, -74.97947525210)"
Cumberland Bay,State Park,10,Clinton,N,Y,Y,,Y,http://nysparks.com/parks/34/details.aspx,,,-73.4211799632,44.7333465428,"(44.73334654280, -73.42117996320)"
Dewolf Point,State Park,10,Jefferson,N,Y,N,,,http://nysparks.com/parks/22/details.aspx,,,-75.9901417959,44.3327407662,"(44.33274076620, -75.99014179590)"
Eel Weir,State Park,10,St. Lawrence,N,Y,N,,,http://nysparks.com/parks/121/details.aspx,,,-75.4759295772,44.6299900391,"(44.62999003910, -75.47592957720)"
Galop Island,State Park,10,St. Lawrence,N,N,N,,,,,,-75.3927637822,44.7684367215,"(44.76843672150, -75.39276378220)"
Grass Point,State Park,10,Jefferson,N,Y,Y,,Y,http://nysparks.com/parks/139/details.aspx,,,-75.9959300735,44.2817668143,"(44.28176681430, -75.99593007350)"
Great Chazy Boat Launch,Marine Facility,10,Clinton,N,N,N,,,,,,-73.3872247618,44.9315944647,"(44.93159446470, -73.38722476180)"
Higley Flow,State Park,10,St. Lawrence,N,Y,Y,,Y,http://nysparks.com/parks/58/details.aspx,,,-74.9146427262,44.498298634,"(44.49829863400, -74.91464272620)"
Jacques Cartier,State Park,10,St. Lawrence,N,Y,Y,,Y,http://nysparks.com/parks/114/details.aspx,,,-75.6805191967,44.5548414638,"(44.55484146380, -75.68051919670)"
Keewaydin,State Park,10,Jefferson,N,Y,Y,,,http://nysparks.com/parks/24/details.aspx,,,-75.929711027,44.3234302144,"(44.32343021440, -75.92971102700)"
Kring Point,State Park,10,Jefferson,N,Y,Y,,Y,http://nysparks.com/parks/14/details.aspx,,,-75.8561585397,44.3771887503,"(44.37718875030, -75.85615853970)"
Long Point,State Park,10,Jefferson,N,Y,Y,,,http://nysparks.com/parks/54/details.aspx,,,-76.2170574817,44.0284402226,"(44.02844022260, -76.21705748170)"
Macomb Reservation,State Park,10,Clinton,N,Y,Y,,Y,http://nysparks.com/parks/77/details.aspx,,,-73.6124077611,44.6178649163,"(44.61786491630, -73.61240776110)"
Mary Island,State Park,10,Jefferson,N,Y,N,,,http://nysparks.com/parks/40/details.aspx,,,-75.9215781208,44.3655711042,"(44.36557110420, -75.92157812080)"
Point Au Roche,State Park,10,Clinton,N,N,Y,Y,Y,http://nysparks.com/parks/30/details.aspx,,,-73.3876934712,44.7784004295,"(44.77840042950, -73.38769347120)"
Point Au Roche Boat Launch,Marine Facility,10,Clinton,N,N,N,,,,,,-73.3643906755,44.8029711522,"(44.80297115220, -73.36439067550)"
Robert Moses,State Park,10,St. Lawrence,N,N,Y,,Y,http://nysparks.com/parks/51/details.aspx,,http://www.nysparks.com/environment/nature-centers/5/details.aspx,-74.8273503481,45.0006401225,"(45.00064012250, -74.82735034810)"
Robert Wehle,State Park,10,Jefferson,N,N,N,,,http://nysparks.com/parks/137/details.aspx,,,-76.2755003184,43.8671690839,"(43.86716908390, -76.27550031840)"
Rock Island Lighthouse,State Park,10,Jefferson,N,N,N,,,,,,-76.0167955672,44.2803113504,"(44.28031135040, -76.01679556720)"
Sackets Harbor,State Historic Site,10,Jefferson,N,N,N,,,http://nysparks.com/historic-sites/7/details.aspx,,,-76.129780271,43.9463098277,"(43.94630982770, -76.12978027100)"
Southwick Beach,State Park,10,Jefferson,N,Y,Y,,Y-M,http://nysparks.com/parks/36/details.aspx,,,-76.2046003266,43.7632912666,"(43.76329126660, -76.20460032660)"
St. Lawrence,State Park,10,St. Lawrence,Y,N,N,,,http://nysparks.com/parks/70/details.aspx,http://nysparks.com/golf-courses/2/details.aspx,,-75.5765698357,44.6298363383,"(44.62983633830, -75.57656983570)"
Stony Creek Boat Launch,Marine Facility,10,Jefferson,N,N,N,,,,,,-76.229208226,43.8256113639,"(43.82561136390, -76.22920822600)"
Waterson Point,State Park,10,Jefferson,N,N,N,,,http://nysparks.com/parks/48/details.aspx,,,-76.0100758633,44.3391781774,"(44.33917817740, -76.01007586330)"
Wellesley Island,State Park,10,Jefferson,Y,Y,Y,Y,Y,http://nysparks.com/parks/52/details.aspx,http://nysparks.com/golf-courses/7/details.aspx,http://www.nysparks.com/environment/nature-centers/2/details.aspx,-76.0154482065,44.3292380029,"(44.32923800290, -76.01544820650)"
Westcott Beach,State Park,10,Jefferson,N,Y,Y,,Y-M,http://nysparks.com/parks/90/details.aspx,,,-76.118017026,43.8969804832,"(43.89698048320, -76.11801702600)"
Whetstone Gulf,State Park,10,Lewis,N,N,Y,,Y,http://nysparks.com/parks/92/details.aspx,,,-75.4774154637,43.6985075739,"(43.69850757390, -75.47741546370)"
Wilson Hill Boat Launch,Marine Facility,10,St. Lawrence,N,N,N,,,,,,-75.0069996446,44.9290287191,"(44.92902871910, -75.00699964460)"
Athens Boat Launch,Marine Facility,11,Greene,N,N,N,,,,,,-73.802276886,42.2729538399,"(42.27295383990, -73.80227688600)"
Bennington Battlefield,State Historic Site,11,Rensselaer,N,N,N,,,http://nysparks.com/historic-sites/12/details.aspx,,,-73.3022506021,42.9395061504,"(42.93950615040, -73.30225060210)"
Cherry Plain,State Park,11,Rensselaer,N,Y,Y,,Y,http://nysparks.com/parks/173/details.aspx,,,-73.412215266,42.6178677896,"(42.61786778960, -73.41221526600)"
Coxsackie Boat Launch,Marine Facility,11,Greene,N,N,Y,,,,,,-73.7957752251,42.3527161128,"(42.35271611280, -73.79577522510)"
Crailo,State Historic Site,11,Rensselaer,N,N,N,,,http://nysparks.com/historic-sites/30/details.aspx,,,-73.749225681,42.6346290753,"(42.63462907530, -73.74922568100)"
Crown Point,State Historic Site,11,Essex,N,N,N,,,http://nysparks.com/historic-sites/34/details.aspx,,,-73.4316631872,44.0233248124,"(44.02332481240, -73.43166318720)"
Grafton Lakes,State Park,11,Rensselaer,N,N,Y,,Y,http://nysparks.com/parks/53/details.aspx,,http://www.nysparks.com/environment/nature-centers/1/details.aspx,-73.4428610841,42.784189977,"(42.78418997700, -73.44286108410)"
Grant Cottage,State Historic Site,11,Saratoga,N,N,N,,,http://nysparks.com/historic-sites/9/details.aspx,,,-73.7454175731,43.2012117039,"(43.20121170390, -73.74541757310)"
Guy Park,State Historic Site,11,Montgomery,N,N,N,,,,,,-74.2095482157,42.9469520074,"(42.94695200740, -74.20954821570)"
Hudson River Islands,State Park,11,Columb/Greene,N,Y,N,,,http://nysparks.com/parks/98/details.aspx,,,-73.7783764,42.3288852476,"(42.32888524760, -73.77837640000)"
John Boyd Thacher,State Park,11,Albany,N,N,Y,Y-A,,http://nysparks.com/parks/128/details.aspx,,http://www.nysparks.com/environment/nature-centers/8/details.aspx,-74.0147061578,42.655465525,"(42.65546552500, -74.01470615780)"
John Brown Farm,State Historic Site,11,Essex,N,N,N,,,http://nysparks.com/historic-sites/29/details.aspx,,,-73.9715067492,44.2495745037,"(44.24957450370, -73.97150674920)"
Johnson Hall,State Historic Site,11,Fulton,N,N,N,,,http://nysparks.com/historic-sites/10/details.aspx,,,-74.3818901744,43.0155118818,"(43.01551188180, -74.38189017440)"
Lake Lauderdale,State Park,11,Washington,N,N,N,,Y,,,,-73.3704151279,43.0850856219,"(43.08508562190, -73.37041512790)"
Max V. Shaul,State Park,11,Schoharie,N,Y,Y,,,http://nysparks.com/parks/94/details.aspx,,,-74.4109223135,42.5479937717,"(42.54799377170, -74.41092231350)"
Mine Kill,State Park,11,Schoharie,N,N,Y,,,http://nysparks.com/parks/165/details.aspx,,,-74.4611210967,42.4340245355,"(42.43402453550, -74.46112109670)"
Mohawk River,State Park,11,Schenectady,N,N,N,,,,,,-73.8496398366,42.8004093799,"(42.80040937990, -73.84963983660)"
Moreau Lake,State Park,11,Saratoga,N,Y,Y,Y,Y,http://nysparks.com/parks/150/details.aspx,,http://www.nysparks.com/environment/nature-centers/7/details.aspx,-73.7337768981,43.2332136686,"(43.23321366860, -73.73377689810)"
Peebles Island,State Park,11,Saratoga,N,N,N,,,http://nysparks.com/parks/111/details.aspx,,,-73.6845492304,42.7823213594,"(42.78232135940, -73.68454923040)"
Rexford Aqueduct,State Historic Site,11,Sara/Schen,N,N,N,,,,,,-73.8876764506,42.8492649622,"(42.84926496220, -73.88767645060)"
Saratoga Lake Marine Park,Marine Facility,11,Saratoga,N,N,N,,,http://nysparks.com/parks/120/details.aspx,,,-73.7204315347,43.0535053108,"(43.05350531080, -73.72043153470)"
Saratoga Spa,State Park,11,Saratoga,Y,N,Y,,,http://nysparks.com/parks/112/details.aspx,http://nysparks.com/golf-courses/15/details.aspx,,-73.8039355929,43.0508914472,"(43.05089144720, -73.80393559290)"
Schodack Island,State Park,11,Alb/Rens,N,N,Y,,,http://nysparks.com/parks/146/details.aspx,,,-73.7765204362,42.4905990224,"(42.49059902240, -73.77652043620)"
Schoharie Crossing,State Historic Site,11,Montgomery,N,N,Y,,,http://nysparks.com/historic-sites/27/details.aspx,,,-74.2675702789,42.9493448538,"(42.94934485380, -74.26757027890)"
Schuyler Mansion,State Historic Site,11,Albany,N,N,N,,,http://nysparks.com/historic-sites/33/details.aspx,,,-73.7592869931,42.6413229736,"(42.64132297360, -73.75928699310)"
Susan B Anthony,Other,11,Washington,N,N,N,,,,,,-73.423119782,43.1105299662,"(43.11052996620, -73.42311978200)"
Thompson's Lake,State Park,11,Albany,N,Y,Y,,Y,http://nysparks.com/parks/99/details.aspx,,,-74.046979934,42.6557310802,"(42.65573108020, -74.04697993400)"
Bayswater,State Park,12,Queens,N,N,N,,,http://nysparks.com/parks/86/details.aspx,,,-73.7725529333,40.6128179007,"(40.61281790070, -73.77255293330)"
Clay Pit Ponds,State Park Preserve,12,Richmond,N,N,N,Y-A,,http://nysparks.com/parks/166/details.aspx,,http://www.nysparks.com/environment/nature-centers/14/details.aspx,-74.2290460884,40.5405635456,"(40.54056354560, -74.22904608840)"
East River,State Park,12,Kings,N,N,Y,,,http://nysparks.com/parks/155/details.aspx,,,-73.962057535,40.7214246134,"(40.72142461340, -73.96205753500)"
Franklin D. Roosevelt Four Freedoms,State Park,12,Manhattan,N,N,N,,,http://nysparks.com/parks/186/details.aspx,,,-73.9603793708,40.7506765522,"(40.75067655220, -73.96037937080)"
Gantry Plaza,State Park,12,Queens,N,N,Y,,,http://nysparks.com/parks/149/details.aspx,,,-73.959045245,40.7443521446,"(40.74435214460, -73.95904524500)"
Hudson River Park,State Park,12,Manhattan,N,N,N,,,,,,-74.0117431827,40.7354989295,"(40.73549892950, -74.01174318270)"
Riverbank,State Park,12,Manhattan,N,N,Y,,,http://nysparks.com/parks/93/details.aspx,,,-73.9568541697,40.8255348249,"(40.82553482490, -73.95685416970)"
Roberto Clemente,State Park,12,Bronx,N,N,Y,,,http://nysparks.com/parks/140/details.aspx,,,-73.9200427364,40.8553636655,"(40.85536366550, -73.92004273640)"
Buffalo Harbor,State Park,1,Erie,N,N,N,N,N,http://nysparks.com/parks/191/details.aspx,,,-78.8646829903,42.8463872552,"(42.84638725520, -78.86468299030)"
